{
"type": "FeatureCollection",
"name": "tiles",
"crs": { "type": "name", "properties": { "name": "urn:ogc:def:crs:OGC:1.3:CRS84" } },
"features": [
{ "type": "Feature", "properties": { "tile_id": "ElkinsvilleNE-undisturbed_tall-00", "site": "ElkinsvilleNE", "stratum": "undisturbed_tall", "split": "tune", "dist_label": "", "stand_id": "", "minx": 560325.0, "miny": 4327836.0, "maxx": 560625.0, "maxy": 4328136.0, "epsg": 26916, "nodata_fraction": 0.0, "canopy_fraction": 0.995824, "height_median": 26.519998550415039, "height_p90": 30.349998474121094 }, "geometry": { "type": "Polygon", "coordinates": [ [ [ -86.298915497793985, 39.09755161399714 ], [ -86.298888725128251, 39.100254772316084 ], [ -86.302357901075354, 39.10027558319554 ], [ -86.302384541293236, 39.097572422883502 ], [ -86.298915497793985, 39.09755161399714 ] ] ] } },
{ "type": "Feature", "properties": { "tile_id": "ElkinsvilleNE-undisturbed_tall-01", "site": "ElkinsvilleNE", "stratum": "undisturbed_tall", "split": "tune", "dist_label": "", "stand_id": "", "minx": 561825.0, "miny": 4328736.0, "maxx": 562125.0, "maxy": 4329036.0, "epsg": 26916, "nodata_fraction": 0.0, "canopy_fraction": 0.99584, "height_median": 23.969999313354492, "height_p90": 28.549999237060547 }, "geometry": { "type": "Polygon", "coordinates": [ [ [ -86.281488018877681, 39.105555462284777 ], [ -86.28146057291444, 39.108258606670681 ], [ -86.284930128129844, 39.108279939752585 ], [ -86.2849574415945, 39.105576793323714 ], [ -86.281488018877681, 39.105555462284777 ] ] ] } },
{ "type": "Feature", "properties": { "tile_id": "ElkinsvilleNE-undisturbed_tall-02", "site": "ElkinsvilleNE", "stratum": "undisturbed_tall", "split": "holdout", "dist_label": "", "stand_id": "", "minx": 560625.0, "miny": 4327536.0, "maxx": 560925.0, "maxy": 4327836.0, "epsg": 26916, "nodata_fraction": 0.0, "canopy_fraction": 0.995704, "height_median": 25.090000152587891, "height_p90": 29.989999771118164 }, "geometry": { "type": "Polygon", "coordinates": [ [ [ -86.295473359389987, 39.094827544316765 ], [ -86.295446457893405, 39.0975307019052 ], [ -86.298915497793985, 39.09755161399714 ], [ -86.298942266861033, 39.094848454405877 ], [ -86.295473359389987, 39.094827544316765 ] ] ] } },
{ "type": "Feature", "properties": { "tile_id": "ElkinsvilleNE-undisturbed_tall-03", "site": "ElkinsvilleNE", "stratum": "undisturbed_tall", "split": "tune", "dist_label": "", "stand_id": "", "minx": 559425.0, "miny": 4326636.0, "maxx": 559725.0, "maxy": 4326936.0, "epsg": 26916, "nodata_fraction": 0.0, "canopy_fraction": 0.995692, "height_median": 24.989999771118164, "height_p90": 29.94999885559082 }, "geometry": { "type": "Polygon", "coordinates": [ [ [ -86.309428104851406, 39.086801061245751 ], [ -86.309401743708762, 39.089504230601563 ], [ -86.312870400655726, 39.089524723979906 ], [ -86.312896629420138, 39.086821552661249 ], [ -86.309428104851406, 39.086801061245751 ] ] ] } },
{ "type": "Feature", "properties": { "tile_id": "ElkinsvilleNE-undisturbed_mixed-04", "site": "ElkinsvilleNE", "stratum": "undisturbed_mixed", "split": "tune", "dist_label": "", "stand_id": "", "minx": 563625.0, "miny": 4329036.0, "maxx": 563925.0, "maxy": 4329336.0, "epsg": 26916, "nodata_fraction": 0.0, "canopy_fraction": 0.979736, "height_median": 21.85999870300293, "height_p90": 26.029998779296875 }, "geometry": { "type": "Polygon", "coordinates": [ [ [ -86.260643319731912, 39.108128440077778 ], [ -86.260615074991918, 39.110831570724166 ], [ -86.264084740314246, 39.110853525364412 ], [ -86.264112852541132, 39.108150392615592 ], [ -86.260643319731912, 39.108128440077778 ] ] ] } },
{ "type": "Feature", "properties": { "tile_id": "ElkinsvilleNE-undisturbed_mixed-05", "site": "ElkinsvilleNE", "stratum": "undisturbed_mixed", "split": "tune", "dist_label": "", "stand_id": "", "minx": 564525.0, "miny": 4326336.0, "maxx": 564825.0, "maxy": 4326636.0, "epsg": 26916, "nodata_fraction": 0.0, "canopy_fraction": 0.98088, "height_median": 19.069999694824219, "height_p90": 25.809999465942383 }, "geometry": { "type": "Polygon", "coordinates": [ [ [ -86.250492351451285, 39.08373378714569 ], [ -86.250463743806094, 39.0864369228958 ], [ -86.253932205721384, 39.086459168106018 ], [ -86.253960681015343, 39.08375603022526 ], [ -86.250492351451285, 39.08373378714569 ] ] ] } },
{ "type": "Feature", "properties": { "tile_id": "ElkinsvilleNE-undisturbed_mixed-06", "site": "ElkinsvilleNE", "stratum": "undisturbed_mixed", "split": "holdout", "dist_label": "", "stand_id": "", "minx": 560025.0, "miny": 4325436.0, "maxx": 560325.0, "maxy": 4325736.0, "epsg": 26916, "nodata_fraction": 0.0, "canopy_fraction": 0.981072, "height_median": 20.520000457763672, "height_p90": 25.920000076293945 }, "geometry": { "type": "Polygon", "coordinates": [ [ [ -86.302597534169152, 39.075947094591932 ], [ -86.302570922583485, 39.078650265080434 ], [ -86.306039043023191, 39.078670956882689 ], [ -86.306065522302816, 39.075967784412164 ], [ -86.302597534169152, 39.075947094591932 ] ] ] } },
{ "type": "Feature", "properties": { "tile_id": "ElkinsvilleNE-selection_harvest-07", "site": "ElkinsvilleNE", "stratum": "selection_harvest", "split": "tune", "dist_label": "Uneven-age / selection harvest", "stand_id": "ELKNE-U44-0-0", "minx": 562125.0, "miny": 4327836.0, "maxx": 562425.0, "maxy": 4328136.0, "epsg": 26916, "nodata_fraction": 0.0, "canopy_fraction": 0.993928, "height_median": 22.889999389648438, "height_p90": 28.590000152587891 }, "geometry": { "type": "Polygon", "coordinates": [ [ [ -86.278101312993584, 39.097424593373397 ], [ -86.278073745651966, 39.100127739526279 ], [ -86.28154289973682, 39.100149169693566 ], [ -86.281570334633813, 39.097446021488302 ], [ -86.278101312993584, 39.097424593373397 ] ] ] } },
{ "type": "Feature", "properties": { "tile_id": "ElkinsvilleNE-selection_harvest-08", "site": "ElkinsvilleNE", "stratum": "selection_harvest", "split": "tune", "dist_label": "Uneven-age / selection harvest", "stand_id": "ELKNE-U44-0-0", "minx": 561825.0, "miny": 4328436.0, "maxx": 562125.0, "maxy": 4328736.0, "epsg": 26916, "nodata_fraction": 0.0, "canopy_fraction": 0.9936, "height_median": 24.510000228881836, "height_p90": 30.239999771118164 }, "geometry": { "type": "Polygon", "coordinates": [ [ [ -86.281515461151628, 39.102852316625736 ], [ -86.281488018877681, 39.105555462284777 ], [ -86.2849574415945, 39.105576793323714 ], [ -86.284984751387668, 39.102873645621855 ], [ -86.281515461151628, 39.102852316625736 ] ] ] } },
{ "type": "Feature", "properties": { "tile_id": "ElkinsvilleNE-selection_harvest-09", "site": "ElkinsvilleNE", "stratum": "selection_harvest", "split": "holdout", "dist_label": "Uneven-age / selection harvest", "stand_id": "ELKNE-U44-0-0", "minx": 562125.0, "miny": 4328436.0, "maxx": 562425.0, "maxy": 4328736.0, "epsg": 26916, "nodata_fraction": 0.0, "canopy_fraction": 0.99342, "height_median": 25.629999160766602, "height_p90": 30.289999008178711 }, "geometry": { "type": "Polygon", "coordinates": [ [ [ -86.278046174604327, 39.102830884405904 ], [ -86.278018599850142, 39.105534028012244 ], [ -86.281488018877681, 39.105555462284777 ], [ -86.281515461151628, 39.102852316625736 ], [ -86.278046174604327, 39.102830884405904 ] ] ] } },
{ "type": "Feature", "properties": { "tile_id": "ElkinsvilleNE-clearcut-10", "site": "ElkinsvilleNE", "stratum": "clearcut", "split": "tune", "dist_label": "Shelterwood establishment cut", "stand_id": "ELKNE-U26-0-0", "minx": 563025.0, "miny": 4327536.0, "maxx": 563325.0, "maxy": 4327836.0, "epsg": 26916, "nodata_fraction": 0.0, "canopy_fraction": 0.868344, "height_median": 20.670000076293945, "height_p90": 28.229999542236328 }, "geometry": { "type": "Polygon", "coordinates": [ [ [ -86.267722231290279, 39.094656548598273 ], [ -86.267694270376907, 39.097359689808364 ], [ -86.271163280847333, 39.097381427533108 ], [ -86.271191109335518, 39.094678284241127 ], [ -86.267722231290279, 39.094656548598273 ] ] ] } },
{ "type": "Feature", "properties": { "tile_id": "ElkinsvilleNE-clearcut-11", "site": "ElkinsvilleNE", "stratum": "clearcut", "split": "tune", "dist_label": "Shelterwood establishment cut", "stand_id": "ELKNE-U26-0-0", "minx": 563025.0, "miny": 4327836.0, "maxx": 563325.0, "maxy": 4328136.0, "epsg": 26916, "nodata_fraction": 0.0, "canopy_fraction": 0.843456, "height_median": 23.799999237060547, "height_p90": 28.399999618530273 }, "geometry": { "type": "Polygon", "coordinates": [ [ [ -86.267694270376907, 39.097359689808364 ], [ -86.26766630570468, 39.100062829744772 ], [ -86.271135448618097, 39.100084569551548 ], [ -86.271163280847333, 39.097381427533108 ], [ -86.267694270376907, 39.097359689808364 ] ] ] } },
{ "type": "Feature", "properties": { "tile_id": "ElkinsvilleNE-clearcut-12", "site": "ElkinsvilleNE", "stratum": "clearcut", "split": "holdout", "dist_label": "Shelterwood establishment cut", "stand_id": "ELKNE-U27-0-0", "minx": 563325.0, "miny": 4327836.0, "maxx": 563625.0, "maxy": 4328136.0, "epsg": 26916, "nodata_fraction": 0.0, "canopy_fraction": 0.8354, "height_median": 21.389999389648438, "height_p90": 27.379999160766602 }, "geometry": { "type": "Polygon", "coordinates": [ [ [ -86.264225263665352, 39.097337848881004 ], [ -86.264197166550687, 39.100040986725489 ], [ -86.26766630570468, 39.100062829744772 ], [ -86.267694270376907, 39.097359689808364 ], [ -86.264225263665352, 39.097337848881004 ] ] ] } },
{ "type": "Feature", "properties": { "tile_id": "ElkinsvilleNE-wind-13", "site": "ElkinsvilleNE", "stratum": "wind", "split": "tune", "dist_label": "Wind", "stand_id": "ELKNE-U34-0-0", "minx": 564525.0, "miny": 4329036.0, "maxx": 564825.0, "maxy": 4329336.0, "epsg": 26916, "nodata_fraction": 0.0, "canopy_fraction": 0.995504, "height_median": 21.189998626708984, "height_p90": 27.059999465942383 }, "geometry": { "type": "Polygon", "coordinates": [ [ [ -86.250234744155662, 39.108061963016837 ], [ -86.250206101879755, 39.110765087296585 ], [ -86.253675755756859, 39.110787351689908 ], [ -86.253704265521378, 39.108084225278056 ], [ -86.250234744155662, 39.108061963016837 ] ] ] } },
{ "type": "Feature", "properties": { "tile_id": "ElkinsvilleNE-wind-14", "site": "ElkinsvilleNE", "stratum": "wind", "split": "tune", "dist_label": "Wind", "stand_id": "ELKNE-U5-0-0", "minx": 563025.0, "miny": 4329336.0, "maxx": 563325.0, "maxy": 4329636.0, "epsg": 26916, "nodata_fraction": 0.0, "canopy_fraction": 0.995232, "height_median": 24.670000076293945, "height_p90": 29.010000228881836 }, "geometry": { "type": "Polygon", "coordinates": [ [ [ -86.267554409416022, 39.110875376752958 ], [ -86.267526425941156, 39.113578510320508 ], [ -86.270996231336582, 39.113600260539847 ], [ -86.271024082279425, 39.110897124889469 ], [ -86.267554409416022, 39.110875376752958 ] ] ] } },
{ "type": "Feature", "properties": { "tile_id": "ElkinsvilleNE-wind-15", "site": "ElkinsvilleNE", "stratum": "wind", "split": "holdout", "dist_label": "Wind", "stand_id": "ELKNE-U5-0-0", "minx": 563025.0, "miny": 4329936.0, "maxx": 563325.0, "maxy": 4330236.0, "epsg": 26916, "nodata_fraction": 0.0, "canopy_fraction": 0.995512, "height_median": 26.25, "height_p90": 30.439998626708984 }, "geometry": { "type": "Polygon", "coordinates": [ [ [ -86.267498438704095, 39.116281642614233 ], [ -86.267470447704298, 39.118984773634061 ], [ -86.270940518217216, 39.119006528019518 ], [ -86.270968376649364, 39.116303394916542 ], [ -86.267498438704095, 39.116281642614233 ] ] ] } },
{ "type": "Feature", "properties": { "tile_id": "ElkinsvilleNE-edge_and_gap-16", "site": "ElkinsvilleNE", "stratum": "edge_and_gap", "split": "tune", "dist_label": "", "stand_id": "", "minx": 559725.0, "miny": 4324536.0, "maxx": 560025.0, "maxy": 4324836.0, "epsg": 26916, "nodata_fraction": 0.0, "canopy_fraction": 0.596456, "height_median": 11.199999809265137, "height_p90": 18.430000305175781 }, "geometry": { "type": "Polygon", "coordinates": [ [ [ -86.306144938790496, 39.067858259369949 ], [ -86.306118470185936, 39.070561435655762 ], [ -86.309586197318666, 39.070582018405041 ], [ -86.309612533669977, 39.067878840147536 ], [ -86.306144938790496, 39.067858259369949 ] ] ] } },
{ "type": "Feature", "properties": { "tile_id": "ElkinsvilleNE-edge_and_gap-17", "site": "ElkinsvilleNE", "stratum": "edge_and_gap", "split": "tune", "dist_label": "", "stand_id": "", "minx": 563625.0, "miny": 4325136.0, "maxx": 563925.0, "maxy": 4325436.0, "epsg": 26916, "nodata_fraction": 0.0, "canopy_fraction": 0.552052, "height_median": 13.689999580383301, "height_p90": 24.510000228881836 }, "geometry": { "type": "Polygon", "coordinates": [ [ [ -86.261010156055519, 39.072987625740339 ], [ -86.260981960629053, 39.075690772948093 ], [ -86.264449904669448, 39.075712700268959 ], [ -86.26447796781413, 39.07300955096084 ], [ -86.261010156055519, 39.072987625740339 ] ] ] } },
{ "type": "Feature", "properties": { "tile_id": "SCBI-transfer-00", "site": "SCBI", "stratum": "transfer", "split": "transfer", "dist_label": "", "stand_id": "", "minx": 1525030.0, "miny": 1905924.0, "maxx": 1525330.0, "maxy": 1906224.0, "epsg": 5070, "nodata_fraction": 0.0, "canopy_fraction": 0.99354444444444445, "height_median": 35.205001831054688, "height_p90": 42.131000518798828 }, "geometry": { "type": "Polygon", "coordinates": [ [ [ -78.145434773516584, 38.88672348483653 ], [ -78.144782724247804, 38.88935294580498 ], [ -78.148212427218184, 38.889852828225621 ], [ -78.148864357187989, 38.88722334905507 ], [ -78.145434773516584, 38.88672348483653 ] ] ] } },
{ "type": "Feature", "properties": { "tile_id": "SCBI-transfer-01", "site": "SCBI", "stratum": "transfer", "split": "transfer", "dist_label": "", "stand_id": "", "minx": 1525630.0, "miny": 1906524.0, "maxx": 1525930.0, "maxy": 1906824.0, "epsg": 5070, "nodata_fraction": 0.0, "canopy_fraction": 0.99116666666666664, "height_median": 25.281999588012695, "height_p90": 33.785999298095703 }, "geometry": { "type": "Polygon", "coordinates": [ [ [ -78.137271124578845, 38.890982318348264 ], [ -78.136618742558994, 38.89361173774963 ], [ -78.14004858999175, 38.8941118463203 ], [ -78.140700852706772, 38.891482408706139 ], [ -78.137271124578845, 38.890982318348264 ] ] ] } },
{ "type": "Feature", "properties": { "tile_id": "SCBI-transfer-02", "site": "SCBI", "stratum": "transfer", "split": "transfer", "dist_label": "", "stand_id": "", "minx": 1525030.0, "miny": 1906524.0, "maxx": 1525330.0, "maxy": 1906824.0, "epsg": 5070, "nodata_fraction": 0.0, "canopy_fraction": 0.9905, "height_median": 30.958000183105469, "height_p90": 37.377597808837891 }, "geometry": { "type": "Polygon", "coordinates": [ [ [ -78.14413062791337, 38.891982404198529 ], [ -78.143478484508208, 38.894611860022515 ], [ -78.14690842610041, 38.895111778854357 ], [ -78.147560450190667, 38.892482304823581 ], [ -78.14413062791337, 38.891982404198529 ] ] ] } },
{ "type": "Feature", "properties": { "tile_id": "SCBI-transfer-03", "site": "SCBI", "stratum": "transfer", "split": "transfer", "dist_label": "", "stand_id": "", "minx": 1525630.0, "miny": 1906824.0, "maxx": 1525930.0, "maxy": 1907124.0, "epsg": 5070, "nodata_fraction": 0.0, "canopy_fraction": 0.99011111111111116, "height_median": 29.00200080871582, "height_p90": 37.046001434326172 }, "geometry": { "type": "Polygon", "coordinates": [ [ [ -78.136618742558994, 38.89361173774963 ], [ -78.135966313447469, 38.896241154582022 ], [ -78.139396280193026, 38.896741281367845 ], [ -78.14004858999175, 38.8941118463203 ], [ -78.136618742558994, 38.89361173774963 ] ] ] } },
{ "type": "Feature", "properties": { "tile_id": "HARV-transfer-00", "site": "HARV", "stratum": "transfer", "split": "transfer", "dist_label": "", "stand_id": "", "minx": 1922343.0, "miny": 2401919.0, "maxx": 1922643.0, "maxy": 2402219.0, "epsg": 5070, "nodata_fraction": 0.0, "canopy_fraction": 0.99936666666666663, "height_median": 20.197000503540039, "height_p90": 24.681999206542969 }, "geometry": { "type": "Polygon", "coordinates": [ [ [ -72.233643052382462, 42.441141791439392 ], [ -72.232734780561401, 42.443741666367593 ], [ -72.236290628942655, 42.44440573668745 ], [ -72.237198776399055, 42.441805834606129 ], [ -72.233643052382462, 42.441141791439392 ] ] ] } },
{ "type": "Feature", "properties": { "tile_id": "HARV-transfer-01", "site": "HARV", "stratum": "transfer", "split": "transfer", "dist_label": "", "stand_id": "", "minx": 1921743.0, "miny": 2400719.0, "maxx": 1922043.0, "maxy": 2401019.0, "epsg": 5070, "nodata_fraction": 0.0, "canopy_fraction": 0.99927777777777782, "height_median": 22.60099983215332, "height_p90": 27.00160026550293 }, "geometry": { "type": "Polygon", "coordinates": [ [ [ -72.244385981304731, 42.432070090970456 ], [ -72.243478229967096, 42.434670009488606 ], [ -72.24703371679675, 42.435333777855369 ], [ -72.247941343786835, 42.432733832204732 ], [ -72.244385981304731, 42.432070090970456 ] ] ] } },
{ "type": "Feature", "properties": { "tile_id": "HARV-transfer-02", "site": "HARV", "stratum": "transfer", "split": "transfer", "dist_label": "", "stand_id": "", "minx": 1922643.0, "miny": 2401919.0, "maxx": 1922943.0, "maxy": 2402219.0, "epsg": 5070, "nodata_fraction": 0.0, "canopy_fraction": 0.99903333333333333, "height_median": 23.038999557495117, "height_p90": 26.510000228881836 }, "geometry": { "type": "Polygon", "coordinates": [ [ [ -72.230087396329751, 42.440477651586704 ], [ -72.229179000151504, 42.443077499358793 ], [ -72.232734780561401, 42.443741666367593 ], [ -72.233643052382462, 42.441141791439392 ], [ -72.230087396329751, 42.440477651586704 ] ] ] } },
{ "type": "Feature", "properties": { "tile_id": "HARV-transfer-03", "site": "HARV", "stratum": "transfer", "split": "transfer", "dist_label": "", "stand_id": "", "minx": 1923243.0, "miny": 2401319.0, "maxx": 1923543.0, "maxy": 2401619.0, "epsg": 5070, "nodata_fraction": 0.0, "canopy_fraction": 0.99898888888888893, "height_median": 24.853000640869141, "height_p90": 29.007999420166016 }, "geometry": { "type": "Polygon", "coordinates": [ [ [ -72.224793373932215, 42.433949502934325 ], [ -72.2238848650303, 42.43654929105324 ], [ -72.227440260796996, 42.437213597110514 ], [ -72.228348645372662, 42.434613781836639 ], [ -72.224793373932215, 42.433949502934325 ] ] ] } }
]
}
